{
  "type": "FeatureCollection",
  "features": [
    {
      "type": "Feature",
      "properties": {
        "norad_id": 34540,
        "name": "IRIDIUM 33 DEB",
        "group": "iridium-33-debris",
        "lat": 55.078741271941276,
        "lon": -45.56724637729267,
        "alt_km": 644.1626861797458,
        "timestamp": "2025-12-09T09:46:48.030775+00:00",
        "meta_object_name": "IRIDIUM 33 DEB",
        "meta_object_id": "1997-051JH",
        "meta_epoch": "2025-12-08T22:22:37.047936",
        "meta_mean_motion": 14.75190663,
        "meta_eccentricity": 0.0015753,
        "meta_inclination": 86.3106,
        "meta_ra_of_asc_node": 309.347,
        "meta_arg_of_pericenter": 172.6926,
        "meta_mean_anomaly": 241.175,
        "meta_ephemeris_type": 0,
        "meta_classification_type": "U",
        "meta_norad_cat_id": 34540,
        "meta_element_set_no": 999,
        "meta_rev_at_epoch": 88965,
        "meta_bstar": 0.0020556,
        "meta_mean_motion_dot": 0.0001395,
        "meta_mean_motion_ddot": 0,
        "tle_line1": "1 34540U 97051JH  25342.93237324  .00013950  00000+0  20556-2 0  9994",
        "tle_line2": "2 34540  86.3106 309.3470 0015753 172.6926 241.1750 14.75190663889650"
      },
      "geometry": {
        "type": "Point",
        "coordinates": [
          -45.56724637729267,
          55.078741271941276
        ]
      }
    },
    {
      "type": "Feature",
      "properties": {
        "norad_id": 34648,
        "name": "IRIDIUM 33 DEB",
        "group": "iridium-33-debris",
        "lat": -64.9865902224471,
        "lon": 111.06444121010455,
        "alt_km": 801.9688243549872,
        "timestamp": "2025-12-09T09:46:48.030786+00:00",
        "meta_object_name": "IRIDIUM 33 DEB",
        "meta_object_id": "1997-051JZ",
        "meta_epoch": "2025-12-08T20:41:39.004800",
        "meta_mean_motion": 14.11300262,
        "meta_eccentricity": 0.01839546,
        "meta_inclination": 86.3913,
        "meta_ra_of_asc_node": 283.5113,
        "meta_arg_of_pericenter": 310.9542,
        "meta_mean_anomaly": 47.5843,
        "meta_ephemeris_type": 0,
        "meta_classification_type": "U",
        "meta_norad_cat_id": 34648,
        "meta_element_set_no": 999,
        "meta_rev_at_epoch": 84906,
        "meta_bstar": 0.013206348,
        "meta_mean_motion_dot": 0.00028062,
        "meta_mean_motion_ddot": 0,
        "tle_line1": "1 34648U 97051JZ  25342.86225700  .00028062  00000+0  13206-1 0  9993",
        "tle_line2": "2 34648  86.3913 283.5113 0183954 310.9542  47.5843 14.11300262849062"
      },
      "geometry": {
        "type": "Point",
        "coordinates": [
          111.06444121010455,
          -64.9865902224471
        ]
      }
    },
    {
      "type": "Feature",
      "properties": {
        "norad_id": 34651,
        "name": "IRIDIUM 33 DEB",
        "group": "iridium-33-debris",
        "lat": 48.62617201442397,
        "lon": -42.23551576986862,
        "alt_km": 788.4738118648966,
        "timestamp": "2025-12-09T09:46:48.030797+00:00",
        "meta_object_name": "IRIDIUM 33 DEB",
        "meta_object_id": "1997-051KC",
        "meta_epoch": "2025-12-08T21:21:49.899168",
        "meta_mean_motion": 14.25711995,
        "meta_eccentricity": 0.0142002,
        "meta_inclination": 86.2851,
        "meta_ra_of_asc_node": 142.2145,
        "meta_arg_of_pericenter": 216.1504,
        "meta_mean_anomaly": 143.0026,
        "meta_ephemeris_type": 0,
        "meta_classification_type": "U",
        "meta_norad_cat_id": 34651,
        "meta_element_set_no": 999,
        "meta_rev_at_epoch": 85841,
        "meta_bstar": 0.0042946,
        "meta_mean_motion_dot": 0.00011352,
        "meta_mean_motion_ddot": 0,
        "tle_line1": "1 34651U 97051KC  25342.89016087  .00011352  00000+0  42946-2 0  9994",
        "tle_line2": "2 34651  86.2851 142.2145 0142002 216.1504 143.0026 14.25711995858414"
      },
      "geometry": {
        "type": "Point",
        "coordinates": [
          -42.23551576986862,
          48.62617201442397
        ]
      }
    },
    {
      "type": "Feature",
      "properties": {
        "norad_id": 34652,
        "name": "IRIDIUM 33 DEB",
        "group": "iridium-33-debris",
        "lat": 69.98086061826275,
        "lon": 151.34133816719464,
        "alt_km": 697.3806948776055,
        "timestamp": "2025-12-09T09:46:48.030808+00:00",
        "meta_object_name": "IRIDIUM 33 DEB",
        "meta_object_id": "1997-051KD",
        "meta_epoch": "2025-12-08T10:58:52.274208",
        "meta_mean_motion": 14.61994532,
        "meta_eccentricity": 0.00263276,
        "meta_inclination": 86.3309,
        "meta_ra_of_asc_node": 341.9078,
        "meta_arg_of_pericenter": 313.8102,
        "meta_mean_anomaly": 199.1921,
        "meta_ephemeris_type": 0,
        "meta_classification_type": "U",
        "meta_norad_cat_id": 34652,
        "meta_element_set_no": 999,
        "meta_rev_at_epoch": 88421,
        "meta_bstar": 0.0013948529,
        "meta_mean_motion_dot": 7.048e-05,
        "meta_mean_motion_ddot": 0,
        "tle_line1": "1 34652U 97051KD  25342.45754947  .00007048  00000+0  13949-2 0  9999",
        "tle_line2": "2 34652  86.3309 341.9078 0026327 313.8102 199.1921 14.61994532884210"
      },
      "geometry": {
        "type": "Point",
        "coordinates": [
          151.34133816719464,
          69.98086061826275
        ]
      }
    },
    {
      "type": "Feature",
      "properties": {
        "norad_id": 34690,
        "name": "IRIDIUM 33 DEB",
        "group": "iridium-33-debris",
        "lat": 55.429000890384714,
        "lon": 43.71343687780272,
        "alt_km": 696.2598748480532,
        "timestamp": "2025-12-09T09:46:48.030819+00:00",
        "meta_object_name": "IRIDIUM 33 DEB",
        "meta_object_id": "1997-051KM",
        "meta_epoch": "2025-12-08T22:13:37.657056",
        "meta_mean_motion": 14.5507276,
        "meta_eccentricity": 0.0011287,
        "meta_inclination": 86.378,
        "meta_ra_of_asc_node": 38.6486,
        "meta_arg_of_pericenter": 40.9093,
        "meta_mean_anomaly": 14.7923,
        "meta_ephemeris_type": 0,
        "meta_classification_type": "U",
        "meta_norad_cat_id": 34690,
        "meta_element_set_no": 999,
        "meta_rev_at_epoch": 88039,
        "meta_bstar": 0.00058226382,
        "meta_mean_motion_dot": 2.533e-05,
        "meta_mean_motion_ddot": 0,
        "tle_line1": "1 34690U 97051KM  25342.92613029  .00002533  00000+0  58226-3 0  9990",
        "tle_line2": "2 34690  86.3780  38.6486 0011287  40.9093  14.7923 14.55072760880396"
      },
      "geometry": {
        "type": "Point",
        "coordinates": [
          43.71343687780272,
          55.429000890384714
        ]
      }
    },
    {
      "type": "Feature",
      "properties": {
        "norad_id": 34693,
        "name": "IRIDIUM 33 DEB",
        "group": "iridium-33-debris",
        "lat": -41.3419993173357,
        "lon": -57.780019296533446,
        "alt_km": 493.96635644840444,
        "timestamp": "2025-12-09T09:46:48.030830+00:00",
        "meta_object_name": "IRIDIUM 33 DEB",
        "meta_object_id": "1997-051KQ",
        "meta_epoch": "2025-12-08T21:28:44.929344",
        "meta_mean_motion": 15.26526055,
        "meta_eccentricity": 0.0014837,
        "meta_inclination": 86.3061,
        "meta_ra_of_asc_node": 305.7325,
        "meta_arg_of_pericenter": 58.9741,
        "meta_mean_anomaly": 325.0117,
        "meta_ephemeris_type": 0,
        "meta_classification_type": "U",
        "meta_norad_cat_id": 34693,
        "meta_element_set_no": 999,
        "meta_rev_at_epoch": 88856,
        "meta_bstar": 0.0052510679,
        "meta_mean_motion_dot": 0.00139885,
        "meta_mean_motion_ddot": 0,
        "tle_line1": "1 34693U 97051KQ  25342.89496446  .00139885  00000+0  52511-2 0  9992",
        "tle_line2": "2 34693  86.3061 305.7325 0014837  58.9741 325.0117 15.26526055888564"
      },
      "geometry": {
        "type": "Point",
        "coordinates": [
          -57.780019296533446,
          -41.3419993173357
        ]
      }
    },
    {
      "type": "Feature",
      "properties": {
        "norad_id": 34696,
        "name": "IRIDIUM 33 DEB",
        "group": "iridium-33-debris",
        "lat": 74.47051124236248,
        "lon": 42.96763108899497,
        "alt_km": 682.7818836004071,
        "timestamp": "2025-12-09T09:46:48.030840+00:00",
        "meta_object_name": "IRIDIUM 33 DEB",
        "meta_object_id": "1997-051KT",
        "meta_epoch": "2025-12-08T14:27:39.651264",
        "meta_mean_motion": 14.64750758,
        "meta_eccentricity": 0.0074318,
        "meta_inclination": 86.1849,
        "meta_ra_of_asc_node": 29.4472,
        "meta_arg_of_pericenter": 181.4638,
        "meta_mean_anomaly": 332.3745,
        "meta_ephemeris_type": 0,
        "meta_classification_type": "U",
        "meta_norad_cat_id": 34696,
        "meta_element_set_no": 999,
        "meta_rev_at_epoch": 86612,
        "meta_bstar": 0.0061608,
        "meta_mean_motion_dot": 0.00034329,
        "meta_mean_motion_ddot": 0,
        "tle_line1": "1 34696U 97051KT  25342.60254226  .00034329  00000+0  61608-2 0  9996",
        "tle_line2": "2 34696  86.1849  29.4472 0074318 181.4638 332.3745 14.64750758866125"
      },
      "geometry": {
        "type": "Point",
        "coordinates": [
          42.96763108899497,
          74.47051124236248
        ]
      }
    }
  ]
}